STARLINK-35574          
1 66111U 25236AB  25308.83336806  .00049508  00000+0  34076-3 0  9996
2 66111  53.1580 328.2126 0001116  90.6117  35.5833 15.74160293  3723
STARLINK-35531          
1 66112U 25236AC  25308.83336806  .00085482  00000+0  58309-3 0  9993
2 66112  53.1581 328.2043 0000830 105.7111  24.3136 15.74147573  3781
STARLINK-35491          
1 66113U 25236AD  25308.83336806 -.00019630  00000+0 -13003-3 0  9990
2 66113  53.1579 328.2083 0000709  83.8461  44.2613 15.74193969  3783
STARLINK-35496          
1 66114U 25237A   25308.83336806 -.00008572  00000+0 -54293-4 0  9992
2 66114  53.1558 267.9710 0000596  97.6389   2.4011 15.74190482  3384
STARLINK-35428          
1 66115U 25237B   25308.83336806 -.00019483  00000+0 -12909-3 0  9993
2 66115  53.1557 267.9673 0000676 110.1360 351.8334 15.74181456  3381
STARLINK-35573          
1 66116U 25237C   25308.83336806 -.00007613  00000+0 -47751-4 0  9990
2 66116  53.1557 267.9630 0000953  95.9172   7.9649 15.74181562  3380
STARLINK-35572          
1 66117U 25237D   25308.83336806 -.00069981  00000+0 -47685-3 0  9992
2 66117  53.1558 267.9553 0001394  99.5636   8.1531 15.74218849  3383
STARLINK-35468          
1 66118U 25237E   25308.83336806 -.00019857  00000+0 -13163-3 0  9994
2 66118  53.1555 267.9590 0000799  97.6513   8.1528 15.74185520  3388
STARLINK-35547          
1 66119U 25237F   25308.83336806 -.00016030  00000+0 -10529-3 0  9998
2 66119  53.1542 267.9428 0001277  90.8876  22.5408 15.74203197  3382
STARLINK-35553          
1 66120U 25237G   25308.83336806 -.00022304  00000+0 -14836-3 0  9996
2 66120  53.1554 267.9513 0001444 100.7120   8.9304 15.74192410  3389
STARLINK-35631          
1 66121U 25237H   25308.83336806 -.00023318  00000+0 -15533-3 0  9998
2 66121  53.1556 267.9461 0000823 115.5055 356.0517 15.74192966  3384
STARLINK-35653          
1 66122U 25237J   25308.83336806  .00153175  00000+0  10336-2 0  9997
2 66122  53.1554 267.9392 0001439 124.9870 350.3492 15.74136071  3383
